#aV2023  4 10  0  0  0.00000000     288 DD+AD WGS84 FIT  NGA
## 2257  86400.00000000   300.00000000 60044 0.0000000000000
+   32     1  2  3  4  5  6  7  8  9 10 11 12 13 14 15 16 17
+         18 19 20 21 22 23 24 25 26 27 28 29 30 31 32  0  0
+          0  0  0  0  0  0  0  0  0  0  0  0  0  0  0  0  0
+          0  0  0  0  0  0  0  0  0  0  0  0  0  0  0  0  0
+          0  0  0  0  0  0  0  0  0  0  0  0  0  0  0  0  0
++         2  2  2  2  2  2  2  2  2  2  2  2  2  2  2  2  2
++         2  2  2  2  2  2  2  2  2  2  2  2  2  2  2  0  0
++         0  0  0  0  0  0  0  0  0  0  0  0  0  0  0  0  0
++         0  0  0  0  0  0  0  0  0  0  0  0  0  0  0  0  0
++         0  0  0  0  0  0  0  0  0  0  0  0  0  0  0  0  0
%c cc cc ccc ccc cccc cccc cccc cccc ccccc ccccc ccccc ccccc
%c cc cc ccc ccc cccc cccc cccc cccc ccccc ccccc ccccc ccccc
%f  0.0000000  0.000000000  0.00000000000  0.000000000000000
%f  0.0000000  0.000000000  0.00000000000  0.000000000000000
%i    0    0    0    0      0      0      0      0         0
%i    0    0    0    0      0      0      0      0         0
/*      NGA, ST. LOUIS,MO.                                  
/*   EPHEMERIS COMPUTED FROM 2 DAYS OF DATA                 
/*   EPOCHA v8 SMOOTHER                                     
/*   G2139 IERS2010 SATIGS SATAPC                           
*  2023  4 10 16 30  0.00000000
P  1  13959.720765 -20528.325989   8595.663777    194.497763                    
V  1  -2170.418092  11433.256333  30048.308059     -0.033610                    
P  2  -8206.312447  25359.058684  -1657.992482   -607.318617                    
V  2  -1553.123960  -3268.444110 -31630.932982      0.036412                    
P  3  18708.548620 -12760.712037 -13905.401569   -332.244110                    
V  3  17510.238092  -1214.602920  25012.588546      0.085241                    
P  4   8049.373304 -13734.825020 -21231.380816     13.591166                    
V  4  17119.999274  20890.897075  -7129.694562      0.091505                    
P  5 -26170.437842   4704.178563  -1552.260723   -122.884075                    
V  5   1160.705810  -2887.827102 -31693.638333     -0.014629                    
P  6  -8076.124844 -15579.748949 -19841.584582    586.317671                    
V  6   9755.980303 -23352.581342  14414.401157      0.014868                    
P  7   5443.903903 -25299.468956   5119.414686    204.360901                    
V  7   5288.709375  -4488.415801 -30946.023067     -0.084373                    
P  8  16974.925485  -2305.039117  20328.057126   -117.101519                    
V  8  16474.320384  19963.000835 -11066.790633     -0.017384                    
P  9  -2422.302679 -20618.073676 -16612.367015   -182.834451                    
V  9  15266.037154  14540.008329 -20401.340618      0.078728                    
P 10  11763.349781  12120.237581  20753.626060    -32.258415                    
V 10 -25317.486463   5101.614543  11169.138140     -0.016543                    
P 11 -15627.052081  -1153.548824 -21433.078776   -158.066087                    
V 11  10167.633445 -25259.853366  -6084.674270     -0.124652                    
P 12 -21118.387293  10686.836847 -12239.380121   -362.274169                    
V 12 -15273.026688   -635.455387  26494.650767     -0.046370                    
P 13 -18485.997923  -6459.971976  17861.685196    503.743978                    
V 13 -10965.848669 -20192.774067 -18275.456272      0.056363                    
P 14  -8350.253246 -14006.422263  20996.010712     21.067175                    
V 14  26298.199704  -4418.978974   7374.146260      0.113789                    
P 15 -16552.553167   4865.147256  19804.725764     29.413142                    
V 15 -18598.268851 -18487.793483 -10493.737555      0.034105                    
P 16  26523.618091    629.237707  -4142.180442   -509.787555                    
V 16  -4608.148537   2607.626882 -30994.907749      0.026784                    
P 17 -12425.235475 -22909.974686   5248.983605    709.919269                    
V 17   5518.172653   3550.943116  31204.095183      0.018097                    
P 18  -3621.541004  24899.721557   8268.233939   -218.235135                    
V 18  -5987.968349   8967.332206 -29770.457582     -0.167197                    
P 19 -17343.854008 -19732.233244  -5072.024188    301.841594                    
V 19  -1657.464202  -6219.016851  30996.335372      0.050978                    
P 20 -23939.204573   -112.089707 -11254.869729    439.814931                    
V 20  12643.379904  -7562.155005 -26928.451251     -0.021512                    
P 21  15790.821393 -13147.926040  16901.224398    154.257618                    
V 21  -3384.144265  20576.034863  20670.319671     -0.000847                    
P 22  18457.969212  17689.294672  -7055.860997    461.672579                    
V 22   3365.000998   9264.880239  29964.226751      0.069087                    
P 23  -1741.162987  15358.419859  21586.381315     15.949509                    
V 23 -26924.966079   4995.555500  -5870.741188      0.025147                    
P 24 -14438.221681  17916.306854  12539.714412   -146.517634                    
V 24   1126.405317 -17005.911170  25313.962049     -0.147038                    
P 25 -10876.055228  15579.126485 -18764.410251    434.570474                    
V 25 -23198.592723   2682.489153  16208.889330      0.028947                    
P 26  20875.157059   6604.818156 -15382.050393    241.810586                    
V 26 -18172.926157   6795.510921 -21569.391568     -0.001941                    
P 27  20510.984839   9129.683738  14264.458827     61.914727                    
V 27  10473.898605  15180.924364 -23947.730368     -0.081573                    
P 28   7958.571236  17290.588515 -18553.303561     62.529216                    
V 28  -8678.045082  21885.356130  16691.480995      0.068419                    
P 29  -2483.954975  18498.789159 -18913.770514   -594.918714                    
V 29 -14874.134499 -18741.450284 -16501.882503     -0.016690                    
P 30  -3563.227158 -21644.892488  14891.596860   -523.018475                    
V 30   9225.153118 -16724.048794 -22521.757571      0.017987                    
P 31  12342.986053  10012.973247 -21400.982497   -213.660182                    
V 31 -10480.005756  24729.874786   6008.404457     -0.008467                    
P 32  15786.676310  21359.439836   2594.656663   -447.871139                    
V 32  -4018.175080   -602.532824  31364.421201     -0.102005                    
EOF
